{
    "type": "FeatureCollection",
    "features": [
        {
            "type": "Feature",
            "geometry": {
                "type": "Point",
                "coordinates": [
                    153.2,
                    -28.0
                ]
            },
            "properties": {
                "station": "Canungra",
                "timestamp": "2026-09-28 01:30:00",
                "timestamp_date": "2026-09-28T01:30:00+10:00",
                "rainfall_mm": 0.0,
                "humidity_%": 96,
                "dew_point_C": 15.4,
                "air_temp_C": 16.0,
                "feels_like_C": 17.8,
                "wind_dir": "CALM",
                "wind_speed_kmh": 0,
                "wind_gust_kmh": null,
                "build_timestamp": 1790523784.452857
            }
        },
        {
            "type": "Feature",
            "geometry": {
                "type": "Point",
                "coordinates": [
                    152.7,
                    -27.6
                ]
            },
            "properties": {
                "station": "Amberley",
                "timestamp": "2026-09-28 01:30:00",
                "timestamp_date": "2026-09-28T01:30:00+10:00",
                "rainfall_mm": 0.0,
                "humidity_%": 97,
                "dew_point_C": 13.9,
                "air_temp_C": 14.4,
                "feels_like_C": 14.9,
                "wind_dir": "ESE",
                "wind_speed_kmh": 4,
                "wind_gust_kmh": null,
                "build_timestamp": 1790523785.0233698
            }
        },
        {
            "type": "Feature",
            "geometry": {
                "type": "Point",
                "coordinates": [
                    153.0,
                    -27.7
                ]
            },
            "properties": {
                "station": "Greenbank",
                "timestamp": "2026-09-28 01:30:00",
                "timestamp_date": "2026-09-28T01:30:00+10:00",
                "rainfall_mm": 0.0,
                "humidity_%": 94,
                "dew_point_C": 13.1,
                "air_temp_C": 14.1,
                "feels_like_C": 15.1,
                "wind_dir": "CALM",
                "wind_speed_kmh": 0,
                "wind_gust_kmh": null,
                "build_timestamp": 1790523785.5649025
            }
        },
        {
            "type": "Feature",
            "geometry": {
                "type": "Point",
                "coordinates": [
                    153.0,
                    -25.9
                ]
            },
            "properties": {
                "station": "Tin Can Bay",
                "timestamp": "2026-09-28 01:30:00",
                "timestamp_date": "2026-09-28T01:30:00+10:00",
                "rainfall_mm": 0.0,
                "humidity_%": 88,
                "dew_point_C": 13.0,
                "air_temp_C": 15.0,
                "feels_like_C": 15.2,
                "wind_dir": "SSW",
                "wind_speed_kmh": 4,
                "wind_gust_kmh": null,
                "build_timestamp": 1790523786.1278238
            }
        },
        {
            "type": "Feature",
            "geometry": {
                "type": "Point",
                "coordinates": [
                    153.0,
                    -27.5
                ]
            },
            "properties": {
                "station": "Brisbane",
                "timestamp": "2026-09-28 01:30:00",
                "timestamp_date": "2026-09-28T01:30:00+10:00",
                "rainfall_mm": 0.0,
                "humidity_%": 84,
                "dew_point_C": 14.8,
                "air_temp_C": 17.5,
                "feels_like_C": 19.1,
                "wind_dir": "CALM",
                "wind_speed_kmh": 0,
                "wind_gust_kmh": null,
                "build_timestamp": 1790523786.7302089
            }
        }
    ]
}